OBJECT_NAME,OBJECT_ID,EPOCH,MEAN_MOTION,ECCENTRICITY,INCLINATION,RA_OF_ASC_NODE,ARG_OF_PERICENTER,MEAN_ANOMALY,EPHEMERIS_TYPE,CLASSIFICATION_TYPE,NORAD_CAT_ID,ELEMENT_SET_NO,REV_AT_EPOCH,BSTAR,MEAN_MOTION_DOT,MEAN_MOTION_DDOT
TIANMU-1 21,2023-208C,2026-06-12T19:33:29.977056,15.35003623,.0006292,97.4499,283.3850,342.4068,17.6956,0,U,58662,999,13689,.3069E-3,.10348E-3,0
TIANMU-1 22,2023-208D,2026-06-12T19:47:15.821088,15.30999915,.000364,97.4495,280.0418,19.8989,340.2393,0,U,58663,999,13666,.26174E-3,.7763E-4,0
TIANMU-1 15,2024-004A,2026-06-12T20:08:26.624256,15.26981733,.0007134,97.4664,350.0292,17.4116,342.7366,0,U,58700,999,13511,.22932E-3,.6002E-4,0
TIANMU-1 16,2024-004B,2026-06-12T19:51:48.972096,15.26706606,.0006274,97.4611,349.2595,22.4322,337.7190,0,U,58701,999,13511,.22876E-3,.5937E-4,0
TIANMU-1 17,2024-004C,2026-06-12T21:05:14.838144,15.26706465,.000597,97.4639,349.7938,28.4274,331.7289,0,U,58702,999,13511,.23145E-3,.6007E-4,0
TIANMU-1 18,2024-004D,2026-06-12T20:32:17.677824,15.26964208,.0004464,97.4656,350.0237,28.9084,331.2401,0,U,58703,999,13511,.22314E-3,.5833E-4,0
INSAT-3DS,2024-033A,2026-06-12T01:36:46.092960,1.00272117,.00010613,0.0402,129.6749,305.5848,291.4317,0,U,58990,999,4701,0,-.14E-5,0
METEOR-M2 4,2024-039A,2026-06-12T21:25:17.883840,14.22429124,.0007054,98.7015,123.2446,173.0118,187.1160,0,U,59051,999,11865,.16973E-4,-.6E-7,0
GOES 19,2024-119A,2026-06-12T05:59:50.724096,1.00270525,.00004872,0.0336,152.4267,18.6402,104.2914,0,U,60133,999,691,0,-.233E-5,0
MTG-S1,2025-143A,2026-06-12T06:20:18.761856,1.00271617,.00009599,0.6078,337.8047,16.4107,357.9845,0,U,64723,999,337,0,-.16E-6,0
METOP-SGA1,2025-172A,2026-06-12T18:35:36.468960,14.21509110,.0000935,98.6644,223.5829,90.1935,269.9349,0,U,65159,999,4316,.38269E-4,.4E-6,0
FENGYUN 3H,2025-219A,2026-06-12T19:30:50.335776,14.19919712,.0001602,98.6768,104.6672,79.3043,280.8314,0,U,65815,999,3676,.34622E-4,.3E-6,0
